#dP2022  2 27  0  0  0.00000000      97 __u+U IGS14 FIT  IAC
## 2199      0.00000000   900.00000000 59637 0.0000000000000
+  124   C02C03C04C05C06C07C08C09C10C11C12C13C14C16C19C20C21
+        C22C23C24C25C26C27C28C29C30C32C33C34C35C36C37C38C39
+        C40C41C42C43C44C45C46C59C60E01E02E03E04E05E07E08E09
+        E10E11E12E13E14E15E18E19E21E24E25E26E27E30E31E33E34
+        E36G01G02G03G04G05G06G07G08G09G10G12G13G14G15G16G17
+        G18G19G20G21G22G23G24G25G26G27G28G29G30G31G32J01J02
+        J03J07R01R02R03R04R05R07R08R09R11R12R13R14R15R17R18
+        R19R20R21R22R24  0  0  0  0  0  0  0  0  0  0  0  0
++        15 15 15 15  9  9  8  9  9  8  8  8  8  9  7  7  7
++         7  7  7  7  7  7  6  7  7  7  7  6  7  7  7  7  7
++         7  7  7  7  6  7  7 16  0  4  4  4  4  4  4  4  4
++         4  4  4  4  4  4  4  4  5  4  4  5  4  4  4  5  4
++         4  3  3  3  3  3  3  3  3  3  3  3  4  3  4  4  3
++         3  3  3  4  3  3  3  3  3  3  4  4  3  3  3  8  8
++         8 15  6  5  5  5  5  5  5  6  7  5  7  6  6  6  6
++         7  6  5  7  6  0  0  0  0  0  0  0  0  0  0  0  0
%c M  cc GPS ccc cccc cccc cccc cccc ccccc ccccc ccccc ccccc
%c cc cc ccc ccc cccc cccc cccc cccc ccccc ccccc ccccc ccccc
%f  1.2500000  1.025000000  0.00000000000  0.000000000000000
%f  0.0000000  0.000000000  0.00000000000  0.000000000000000
%i    0    0    0    0      0      0      0      0         0
%i    0    0    0    0      0      0      0      0         0
/* INFORMATION & ANALYSIS CENTER (IAC)            FINAL DATA
/* S/V CLOCKS ARE ALIGNED TO GNSS TIME                      
/* G:C1WC2W R:C1PC2P E:C1XC5X C:C2IC6I J:C1CC2S             
/* PCV:IGS14_2196 OL/AL:FES2004  NONE     YN ORB:CoN CLK:CoN
*  2022 02 27 23 45  0.00000000
PC02   4560.548020  41953.831649    588.592917    274.644877
PC03 -14802.716313  39518.176153   -350.690946    904.130697
PC04 -39646.086346  14351.761725   -704.382176     17.663416
PC05  22090.071649  35977.998132    532.088202   -411.457461
PC06  -6397.955698  23983.492936  34093.111474    126.577687
PC07 -18260.945876  34706.335762 -15653.547257   -107.192945
PC08  -3800.441183  38491.893330 -16581.761045    164.235780
PC09   4893.035913  27635.425063  31935.687633   -561.148971
PC10 -11721.440516  34761.220593 -20922.234499    139.527139
PC11  -1379.335546  15764.932421 -22915.795552   -181.604199
PC12 -19305.450938   5729.473522 -19283.631123    681.548978
PC13   1669.820227  41046.312681  -8754.003984   -103.982959
PC14 -10618.815531  21348.556749  14569.003691    452.528954
PC16  -7204.160482  23168.331205  34641.931751     92.006698
PC19   1054.115768 -18865.759663 -20501.145455    891.778490
PC20  17135.937716 -20553.855532  -7850.113505   -833.366044
PC21 -23946.010030   9974.568977 -10293.232869   -933.027397
PC22 -16308.439044  -6190.768060 -21781.893364   -958.828271
PC23  14401.411543  17376.108703 -16412.440228   -951.757910
PC24  -8678.306631  21053.791253  16092.833115   -944.717597
PC25   5400.144760  27344.224583  -1089.337310   -773.052966
PC26 -15760.021456   4142.496193  22637.824902    773.028887
PC27  24797.239492    679.450234  12783.894801    684.245599
PC28  24248.007775  13155.427614  -4214.868613     37.786823
PC29  -9899.042063 -17755.440314  19108.784811    521.023659
PC30  11224.421266 -12373.570150  22351.599415    494.217696
PC32  23869.031816 -10069.864961  10384.028616   -971.207454
PC33  -1012.631911  18951.329042  20473.560595   -960.780749
PC34 -10205.291772  12933.351710 -22529.680082   -459.290986
PC35 -24315.849149 -12713.978813   4961.923414    159.673816
PC36  -4442.454905 -27548.296178    619.042290   -921.560334
PC37  16053.664674  -2552.992836 -22674.699916   -952.145197
PC38  -8435.285344  35165.142899 -21512.643201    214.501419
PC39 -14119.943841  20305.770182  34139.217628     34.829177
PC40 -25055.919671  30466.683182 -15112.123859    248.124176
PC41  16019.115121   6585.392236  21935.858923   -945.416982
PC42 -17741.144688  20395.797331   7010.639738   -933.875165
PC43   9127.274399  17888.495410 -19395.386820   -939.073451
PC44 -24880.520800    154.240056 -12607.626150    578.978764
PC45 -14400.309167 -17192.429081  16618.239019    691.928128
PC46   7735.531949 -22130.474132 -15173.855046   -191.686198
PC59 -32340.131873  27053.885169    589.844760     -0.150493
PC60      0.000000      0.000000      0.000000 999999.999999
PE01  -9559.200794 -17132.451959  22164.527420   -587.414720
PE02   9685.113733  16956.023950 -22244.645108    283.077688
PE03  19651.083999  10638.205501  19407.437320   -532.288486
PE04 -29279.537659   2106.474643  -3782.956517   -974.025100
PE05  -1709.534639  17367.215953  23912.234217   -204.969420
PE07  21783.659074 -13892.070618 -14433.969941   -643.428663
PE08  29290.550873  -2505.549087   3423.638552   -486.949671
PE09 -21574.103133  13988.011919  14679.183603   5345.324615
PE10 -17503.001796   2946.768642 -23689.779621   -497.750671
PE11 -10257.766706  12768.327976 -24661.009022   4350.432592
PE12 -21677.506870  -6823.515347 -18949.060495   4737.834911
PE13  10729.191418 -12137.214904  24780.725912    426.890913
PE14 -26654.231479  10783.274072 -14003.001131  -1761.021878
PE15  21709.594577   6962.479380  18893.864672    760.704514
PE18  22878.726349  -4331.566245   6515.263928  -1741.518790
PE19 -17406.836687 -11845.131106 -20796.610195   -502.541882
PE21   3780.976325 -27837.440379   9337.513594   -719.698456
PE24 -16349.448408  22226.995540  10656.311845  -1414.308688
PE25  -3956.192382  27875.124668  -9116.173188   -565.111644
PE26  -7180.452562 -24342.541333  15238.263986   -855.831791
PE27  15756.571551 -23173.209745  -9564.254481   -242.128801
PE30  18255.365808  -3641.133669 -23033.210595   -309.160663
PE31 -18362.721585   4893.309435  22693.205458   -492.818739
PE33 -19833.563503 -21882.197523  -1876.780376   -459.026258
PE34  19970.005006  21747.894007   2092.853032   -504.150830
PE36   6503.683638  24000.231485 -16061.552538   -338.428179
PG01  18238.565345   7862.016226  17525.780870    420.771668
PG02 -14829.757614 -21932.116800   1385.910969   -651.588700
PG03  17235.114543  -3618.016420  19745.711461   -141.310661
PG04  26576.090896    801.441207    976.958032   -186.892193
PG05 -10230.217980 -12727.725599 -21080.458706    -72.951689
PG06  -2618.716469 -22287.150991  14217.027992    215.332780
PG07  12317.513924  -9040.241788 -21323.883677    313.203969
PG08  23326.666959   6639.056003 -11258.767330    -57.895519
PG09  23471.328310  -7978.388505  -9645.790700   -352.216647
PG10 -11176.432960  23841.574683   2045.843420   -332.641999
PG12 -16337.208249   -651.735833  20635.904874   -177.531340
PG13 -16673.239468 -13013.844101 -16317.025166    268.785881
PG14  12745.896753 -23226.700022   1196.539671    -88.799747
PG15 -24130.747596  -4489.574625 -10949.029627    -80.527645
PG16   5739.117444  16423.870931 -20197.546758   -474.855545
PG17  11102.169332 -13407.514183  20509.851928    580.821983
PG18 -11883.053693   9292.859017 -21857.556171    230.801860
PG19   2493.824439 -14528.797092  21827.267633    124.617041
PG20  -4622.595581 -21087.401023 -15633.782789    516.511962
PG21  20023.916181  15138.999448  10273.401334    158.714887
PG22   1241.446074  15428.415891  21995.949247    220.091734
PG23 -16428.658688  18734.844828  -9068.065946     -2.584835
PG24 -20209.244493 -10585.737529  13637.271238    271.900738
PG25 -18086.081400  12804.073994  14146.894948    291.588485
PG26  -2232.175804  23876.694126 -11157.733460    186.837188
PG27  14108.892513  12528.041067 -19050.605132    136.544848
PG28   7494.388480 -23744.025715  10083.207771    391.090803
PG29 -25036.703472   4194.551649  -7958.929115   -485.499451
PG30   5979.579315 -17382.818141 -19012.705621   -515.956698
PG31   3957.936903  23190.910795  11729.948176   -166.720895
PG32  -6023.866503  15071.264601  21123.232111    -75.561511
PJ01 -31803.842677  26465.445567  13318.453111    224.967924
PJ02 -31048.711808  25704.731111  17318.199769     -1.635495
PJ03 -26540.588135  16514.728488 -23694.609659     -0.733781
PJ07 -25389.038774  33659.815697     47.180362      0.013681
PR01 -20572.068317   3381.651074 -14702.070449      7.149107
PR02 -21177.164307  13413.926241   4579.978942    511.008523
PR03  -8436.995636  14689.388913  19094.895813     52.252529
PR04   8595.230092   7549.802178  22829.877657    129.682077
PR05  21058.868696  -3579.407612  13974.872402     88.502928
PR07   7907.950495 -14544.125932 -19383.717103     32.111918
PR08  -8740.288410  -7545.563287 -22683.524539    -63.766937
PR09   8937.460510 -16250.278601 -17465.915737     41.788455
PR11  -6210.674964 -20383.443180  14020.212378     44.728679
PR12 -10888.835351  -2710.892112  22927.085873     17.301928
PR13  -9092.270807  15261.604712  18280.653992    -18.820699
PR14  -1731.203812  25372.816572   2053.847504     74.857817
PR15   6320.719497  19947.413937 -14573.019701     97.901788
PR17   3580.582415  13676.600547 -21212.996310    505.425604
PR18  17468.423194  16182.849804  -9209.184235    108.730944
PR19  21857.309684  11384.845308   6591.813459   -179.762706
PR20  13391.568572  -2423.046788  21596.302347    -65.744846
PR21  -4969.421589 -14199.673490  20607.680683   -281.441365
PR22 -17818.769312 -16120.813723   8394.587057   -167.462664
PR24 -12996.677769   3606.068976 -21632.436245     82.165159
EOF
